{
    "links": {
        "self": "http://www.neowsapp.com/rest/v1/neo/3780698?api_key=iIulBulltgU6a56xZRHN4H3l9WmuAYTsLGpBGhQ2"
    },
    "id": "3780698",
    "neo_reference_id": "3780698",
    "name": "(2017 QS)",
    "designation": "2017 QS",
    "nasa_jpl_url": "http://ssd.jpl.nasa.gov/sbdb.cgi?sstr=3780698",
    "absolute_magnitude_h": 23.1,
    "estimated_diameter": {
        "kilometers": {
            "estimated_diameter_min": 0.063760979,
            "estimated_diameter_max": 0.1425738833
        },
        "meters": {
            "estimated_diameter_min": 63.7609789875,
            "estimated_diameter_max": 142.5738833281
        },
        "miles": {
            "estimated_diameter_min": 0.0396192233,
            "estimated_diameter_max": 0.0885912765
        },
        "feet": {
            "estimated_diameter_min": 209.1895703015,
            "estimated_diameter_max": 467.7620993781
        }
    },
    "is_potentially_hazardous_asteroid": false,
    "close_approach_data": [
        {
            "close_approach_date": "2014-05-30",
            "close_approach_date_full": "2014-May-30 07:56",
            "epoch_date_close_approach": 1401436560000,
            "relative_velocity": {
                "kilometers_per_second": "12.2201560972",
                "kilometers_per_hour": "43992.5619497868",
                "miles_per_hour": "27335.2671737439"
            },
            "miss_distance": {
                "astronomical": "0.2863736917",
                "lunar": "111.3993660713",
                "kilometers": "42840894.302356679",
                "miles": "26620097.3291690102"
            },
            "orbiting_body": "Earth"
        },
        {
            "close_approach_date": "2017-07-17",
            "close_approach_date_full": "2017-Jul-17 05:59",
            "epoch_date_close_approach": 1500271140000,
            "relative_velocity": {
                "kilometers_per_second": "6.9834121911",
                "kilometers_per_hour": "25140.2838878121",
                "miles_per_hour": "15621.1947301797"
            },
            "miss_distance": {
                "astronomical": "0.0966297435",
                "lunar": "37.5889702215",
                "kilometers": "14455603.806246345",
                "miles": "8982295.690615761"
            },
            "orbiting_body": "Earth"
        },
        {
            "close_approach_date": "2020-08-13",
            "close_approach_date_full": "2020-Aug-13 12:15",
            "epoch_date_close_approach": 1597320900000,
            "relative_velocity": {
                "kilometers_per_second": "15.8329391028",
                "kilometers_per_hour": "56998.5807699263",
                "miles_per_hour": "35416.7014789578"
            },
            "miss_distance": {
                "astronomical": "0.3593918278",
                "lunar": "139.8034210142",
                "kilometers": "53764251.934286786",
                "miles": "33407557.0229622068"
            },
            "orbiting_body": "Earth"
        }
    ],
    "orbital_data": {
        "orbit_id": "6",
        "orbit_determination_date": "2017-09-12 06:20:25",
        "first_observation_date": "2017-08-15",
        "last_observation_date": "2017-09-11",
        "data_arc_in_days": 27,
        "observations_used": 30,
        "orbit_uncertainty": "7",
        "minimum_orbit_intersection": ".0951007",
        "jupiter_tisserand_invariant": "3.577",
        "epoch_osculation": "2459000.5",
        "eccentricity": ".4855679671264636",
        "semi_major_axis": "2.104187417623403",
        "inclination": "6.695697976541908",
        "ascending_node_longitude": "320.8162894132377",
        "orbital_period": "1114.872122112888",
        "perihelion_distance": "1.082461410794924",
        "perihelion_argument": "318.91925335",
        "aphelion_distance": "3.125913424451881",
        "perihelion_time": "2459053.657993233537",
        "mean_anomaly": "342.834912467086",
        "mean_motion": ".3229069889358555",
        "equinox": "J2000",
        "orbit_class": {
            "orbit_class_type": "AMO",
            "orbit_class_description": "Near-Earth asteroid orbits similar to that of 1221 Amor",
            "orbit_class_range": "1.017 AU < q (perihelion) < 1.3 AU"
        }
    },
    "is_sentry_object": false
}